{
    "links": {
        "self": "http://www.neowsapp.com/rest/v1/neo/3698844?api_key=iIulBulltgU6a56xZRHN4H3l9WmuAYTsLGpBGhQ2"
    },
    "id": "3698844",
    "neo_reference_id": "3698844",
    "name": "(2014 WS202)",
    "designation": "2014 WS202",
    "nasa_jpl_url": "http://ssd.jpl.nasa.gov/sbdb.cgi?sstr=3698844",
    "absolute_magnitude_h": 23.0,
    "estimated_diameter": {
        "kilometers": {
            "estimated_diameter_min": 0.0667659413,
            "estimated_diameter_max": 0.1492931834
        },
        "meters": {
            "estimated_diameter_min": 66.7659413495,
            "estimated_diameter_max": 149.2931834393
        },
        "miles": {
            "estimated_diameter_min": 0.0414864197,
            "estimated_diameter_max": 0.0927664547
        },
        "feet": {
            "estimated_diameter_min": 219.0483710172,
            "estimated_diameter_max": 489.807047955
        }
    },
    "is_potentially_hazardous_asteroid": false,
    "close_approach_data": [
        {
            "close_approach_date": "2014-11-26",
            "close_approach_date_full": "2014-Nov-26 11:58",
            "epoch_date_close_approach": 1417003080000,
            "relative_velocity": {
                "kilometers_per_second": "12.4705882238",
                "kilometers_per_hour": "44894.1176057498",
                "miles_per_hour": "27895.4587978616"
            },
            "miss_distance": {
                "astronomical": "0.143971173",
                "lunar": "56.004786297",
                "kilometers": "21537780.82220151",
                "miles": "13382956.426980438"
            },
            "orbiting_body": "Earth"
        }
    ],
    "orbital_data": {
        "orbit_id": "7",
        "orbit_determination_date": "2017-04-06 08:37:12",
        "first_observation_date": "2014-11-23",
        "last_observation_date": "2014-12-15",
        "data_arc_in_days": 22,
        "observations_used": 51,
        "orbit_uncertainty": "7",
        "minimum_orbit_intersection": ".138711",
        "jupiter_tisserand_invariant": "3.065",
        "epoch_osculation": "2459000.5",
        "eccentricity": ".5742399645586048",
        "semi_major_axis": "2.642392199442898",
        "inclination": "20.12739004818868",
        "ascending_node_longitude": "244.1403971496044",
        "orbital_period": "1568.896682921667",
        "perihelion_distance": "1.125024996484874",
        "perihelion_argument": "177.5183774019519",
        "aphelion_distance": "4.159759402400922",
        "perihelion_time": "2458556.629065456966",
        "mean_anomaly": "101.8508982617759",
        "mean_motion": ".2294606164439029",
        "equinox": "J2000",
        "orbit_class": {
            "orbit_class_type": "AMO",
            "orbit_class_description": "Near-Earth asteroid orbits similar to that of 1221 Amor",
            "orbit_class_range": "1.017 AU < q (perihelion) < 1.3 AU"
        }
    },
    "is_sentry_object": false
}